ONEWEB-0611             
1 54674U 22166AJ  26060.01209755 -.00000013  00000+0 -63818-4 0  9991
2 54674  87.9165 265.5551 0001705  93.7292 266.4037 13.21827407157150
ONEWEB-0612             
1 54675U 22166AK  26060.10095939  .00000003  00000+0 -24834-4 0  9992
2 54675  87.9178 265.5203 0001487  86.9475 273.1829 13.21825756157152
ONEWEB-0615             
1 54676U 22166AL  26060.08120694  .00000043  00000+0  72846-4 0  9996
2 54676  87.9168 265.5489 0001590  89.0144 271.1172 13.21825467157169
ONEWEB-0655             
1 54677U 22166AM  26060.05652317  .00000151  00000+0  33501-3 0  9990
2 54677  87.9171 265.5557 0001352  94.8907 265.2382 13.21826314157155
ONEWEB-0659             
1 54678U 22166AN  26059.99727681  .00000066  00000+0  12863-3 0  9992
2 54678  87.9167 265.5684 0001692  88.9028 271.2300 13.21826387157233
ONEWEB-0685             
1 54679U 22166AP  26060.07328891  .00000120  00000+0  25894-3 0  9993
2 54679  87.9164 265.5487 0001397  87.9499 272.1795 13.21812221157134
ONEWEB-0712             
1 54680U 22166AQ  26060.06833436  .00000010  00000+0 -62714-5 0  9993
2 54680  87.9003 250.2828 0001337 111.3631 248.7642 13.16593424157834
ONEWEB-0714             
1 54681U 22166AR  26060.00384639  .00000041  00000+0  68165-4 0  9992
2 54681  87.9166 265.5572 0001395  91.0030 269.1263 13.21827151157245
ONEWEB-0532             
1 55140U 23004A   26059.97618176  .00000014  00000+0  16066-5 0  9999
2 55140  87.9144  27.3521 0002061  72.3288 287.8069 13.17649261153334
ONEWEB-0533             
1 55141U 23004B   26059.89568067 -.00000357  00000+0 -10265-2 0  9998
2 55141  87.8994  12.1586 0001681  77.4608 282.6709 13.12442867153858
ONEWEB-0541             
1 55142U 23004C   26059.99347933  .00000019  00000+0  18049-4 0  9990
2 55142  87.8852  42.5656 0002009  84.1380 275.9977 13.11418474151760
ONEWEB-0543             
1 55143U 23004D   26059.73631656  .00000001  00000+0 -30556-4 0  9990
2 55143  87.9225 357.0161 0001665  87.8051 272.3272 13.18685890155402
ONEWEB-0544             
1 55144U 23004E   26059.88146995  .00000039  00000+0  66707-4 0  9991
2 55144  87.9235 356.9833 0001989  85.5177 274.6183 13.18686049155426
ONEWEB-0560             
1 55145U 23004F   26059.87487102 -.00000010  00000+0 -57749-4 0  9996
2 55145  87.9236 356.9746 0001940  85.9988 274.1366 13.18685520155434
ONEWEB-0565             
1 55146U 23004G   26059.86827282  .00000064  00000+0  12861-3 0  9995
2 55146  87.9225 357.0140 0002328  82.1837 277.9560 13.18685296155422
ONEWEB-0567             
1 55147U 23004H   26059.86167583  .00000026  00000+0  32104-4 0  9998
2 55147  87.9235 356.9889 0002185  85.2820 274.8562 13.18685510155426
ONEWEB-0569             
1 55148U 23004J   26060.14065894  .00000229  00000+0  59227-3 0  9993
2 55148  87.9051 341.6992 0002329 100.9759 259.1632 13.13469484155996
