[{"OBJECT_NAME":"ONEWEB-0611","OBJECT_ID":"2022-166AJ","EPOCH":"2026-03-01T00:17:25.228320","MEAN_MOTION":13.21827407,"ECCENTRICITY":0.0001705,"INCLINATION":87.9165,"RA_OF_ASC_NODE":265.5551,"ARG_OF_PERICENTER":93.7292,"MEAN_ANOMALY":266.4037,"EPHEMERIS_TYPE":0,"CLASSIFICATION_TYPE":"U","NORAD_CAT_ID":54674,"ELEMENT_SET_NO":999,"REV_AT_EPOCH":15715,"BSTAR":-6.3818e-5,"MEAN_MOTION_DOT":-1.3e-7,"MEAN_MOTION_DDOT":0},{"OBJECT_NAME":"ONEWEB-0612","OBJECT_ID":"2022-166AK","EPOCH":"2026-03-01T02:25:22.891296","MEAN_MOTION":13.21825756,"ECCENTRICITY":0.0001487,"INCLINATION":87.9178,"RA_OF_ASC_NODE":265.5203,"ARG_OF_PERICENTER":86.9475,"MEAN_ANOMALY":273.1829,"EPHEMERIS_TYPE":0,"CLASSIFICATION_TYPE":"U","NORAD_CAT_ID":54675,"ELEMENT_SET_NO":999,"REV_AT_EPOCH":15715,"BSTAR":-2.4834e-5,"MEAN_MOTION_DOT":3.0e-8,"MEAN_MOTION_DDOT":0},{"OBJECT_NAME":"ONEWEB-0615","OBJECT_ID":"2022-166AL","EPOCH":"2026-03-01T01:56:56.279616","MEAN_MOTION":13.21825467,"ECCENTRICITY":0.000159,"INCLINATION":87.9168,"RA_OF_ASC_NODE":265.5489,"ARG_OF_PERICENTER":89.0144,"MEAN_ANOMALY":271.1172,"EPHEMERIS_TYPE":0,"CLASSIFICATION_TYPE":"U","NORAD_CAT_ID":54676,"ELEMENT_SET_NO":999,"REV_AT_EPOCH":15716,"BSTAR":7.2846e-5,"MEAN_MOTION_DOT":4.3e-7,"MEAN_MOTION_DDOT":0},{"OBJECT_NAME":"ONEWEB-0655","OBJECT_ID":"2022-166AM","EPOCH":"2026-03-01T01:21:23.601888","MEAN_MOTION":13.21826314,"ECCENTRICITY":0.0001352,"INCLINATION":87.9171,"RA_OF_ASC_NODE":265.5557,"ARG_OF_PERICENTER":94.8907,"MEAN_ANOMALY":265.2382,"EPHEMERIS_TYPE":0,"CLASSIFICATION_TYPE":"U","NORAD_CAT_ID":54677,"ELEMENT_SET_NO":999,"REV_AT_EPOCH":15715,"BSTAR":0.00033501,"MEAN_MOTION_DOT":1.51e-6,"MEAN_MOTION_DDOT":0},{"OBJECT_NAME":"ONEWEB-0659","OBJECT_ID":"2022-166AN","EPOCH":"2026-02-28T23:56:04.716384","MEAN_MOTION":13.21826387,"ECCENTRICITY":0.0001692,"INCLINATION":87.9167,"RA_OF_ASC_NODE":265.5684,"ARG_OF_PERICENTER":88.9028,"MEAN_ANOMALY":271.23,"EPHEMERIS_TYPE":0,"CLASSIFICATION_TYPE":"U","NORAD_CAT_ID":54678,"ELEMENT_SET_NO":999,"REV_AT_EPOCH":15723,"BSTAR":0.00012863,"MEAN_MOTION_DOT":6.6e-7,"MEAN_MOTION_DDOT":0},{"OBJECT_NAME":"ONEWEB-0685","OBJECT_ID":"2022-166AP","EPOCH":"2026-03-01T01:45:32.161824","MEAN_MOTION":13.21812221,"ECCENTRICITY":0.0001397,"INCLINATION":87.9164,"RA_OF_ASC_NODE":265.5487,"ARG_OF_PERICENTER":87.9499,"MEAN_ANOMALY":272.1795,"EPHEMERIS_TYPE":0,"CLASSIFICATION_TYPE":"U","NORAD_CAT_ID":54679,"ELEMENT_SET_NO":999,"REV_AT_EPOCH":15713,"BSTAR":0.00025894,"MEAN_MOTION_DOT":1.2e-6,"MEAN_MOTION_DDOT":0},{"OBJECT_NAME":"ONEWEB-0712","OBJECT_ID":"2022-166AQ","EPOCH":"2026-03-01T01:38:24.088704","MEAN_MOTION":13.16593424,"ECCENTRICITY":0.0001337,"INCLINATION":87.9003,"RA_OF_ASC_NODE":250.2828,"ARG_OF_PERICENTER":111.3631,"MEAN_ANOMALY":248.7642,"EPHEMERIS_TYPE":0,"CLASSIFICATION_TYPE":"U","NORAD_CAT_ID":54680,"ELEMENT_SET_NO":999,"REV_AT_EPOCH":15783,"BSTAR":-6.2714e-6,"MEAN_MOTION_DOT":1.0e-7,"MEAN_MOTION_DDOT":0},{"OBJECT_NAME":"ONEWEB-0714","OBJECT_ID":"2022-166AR","EPOCH":"2026-03-01T00:05:32.328096","MEAN_MOTION":13.21827151,"ECCENTRICITY":0.0001395,"INCLINATION":87.9166,"RA_OF_ASC_NODE":265.5572,"ARG_OF_PERICENTER":91.003,"MEAN_ANOMALY":269.1263,"EPHEMERIS_TYPE":0,"CLASSIFICATION_TYPE":"U","NORAD_CAT_ID":54681,"ELEMENT_SET_NO":999,"REV_AT_EPOCH":15724,"BSTAR":6.8165e-5,"MEAN_MOTION_DOT":4.1e-7,"MEAN_MOTION_DDOT":0},{"OBJECT_NAME":"ONEWEB-0532","OBJECT_ID":"2023-004A","EPOCH":"2026-02-28T23:25:42.104064","MEAN_MOTION":13.17649261,"ECCENTRICITY":0.0002061,"INCLINATION":87.9144,"RA_OF_ASC_NODE":27.3521,"ARG_OF_PERICENTER":72.3288,"MEAN_ANOMALY":287.8069,"EPHEMERIS_TYPE":0,"CLASSIFICATION_TYPE":"U","NORAD_CAT_ID":55140,"ELEMENT_SET_NO":999,"REV_AT_EPOCH":15333,"BSTAR":1.6066e-6,"MEAN_MOTION_DOT":1.4e-7,"MEAN_MOTION_DDOT":0},{"OBJECT_NAME":"ONEWEB-0533","OBJECT_ID":"2023-004B","EPOCH":"2026-02-28T21:29:46.809888","MEAN_MOTION":13.12442867,"ECCENTRICITY":0.0001681,"INCLINATION":87.8994,"RA_OF_ASC_NODE":12.1586,"ARG_OF_PERICENTER":77.4608,"MEAN_ANOMALY":282.6709,"EPHEMERIS_TYPE":0,"CLASSIFICATION_TYPE":"U","NORAD_CAT_ID":55141,"ELEMENT_SET_NO":999,"REV_AT_EPOCH":15385,"BSTAR":-0.0010265,"MEAN_MOTION_DOT":-3.57e-6,"MEAN_MOTION_DDOT":0},{"OBJECT_NAME":"ONEWEB-0541","OBJECT_ID":"2023-004C","EPOCH":"2026-02-28T23:50:36.614112","MEAN_MOTION":13.11418474,"ECCENTRICITY":0.0002009,"INCLINATION":87.8852,"RA_OF_ASC_NODE":42.5656,"ARG_OF_PERICENTER":84.138,"MEAN_ANOMALY":275.9977,"EPHEMERIS_TYPE":0,"CLASSIFICATION_TYPE":"U","NORAD_CAT_ID":55142,"ELEMENT_SET_NO":999,"REV_AT_EPOCH":15176,"BSTAR":1.8049e-5,"MEAN_MOTION_DOT":1.9e-7,"MEAN_MOTION_DDOT":0},{"OBJECT_NAME":"ONEWEB-0543","OBJECT_ID":"2023-004D","EPOCH":"2026-02-28T17:40:17.750784","MEAN_MOTION":13.1868589,"ECCENTRICITY":0.00016653,"INCLINATION":87.9225,"RA_OF_ASC_NODE":357.0161,"ARG_OF_PERICENTER":87.8051,"MEAN_ANOMALY":272.3272,"EPHEMERIS_TYPE":0,"CLASSIFICATION_TYPE":"U","NORAD_CAT_ID":55143,"ELEMENT_SET_NO":999,"REV_AT_EPOCH":15540,"BSTAR":-3.0555915e-5,"MEAN_MOTION_DOT":1.0e-8,"MEAN_MOTION_DDOT":0},{"OBJECT_NAME":"ONEWEB-0544","OBJECT_ID":"2023-004E","EPOCH":"2026-02-28T21:09:19.003680","MEAN_MOTION":13.18686049,"ECCENTRICITY":0.0001989,"INCLINATION":87.9235,"RA_OF_ASC_NODE":356.9833,"ARG_OF_PERICENTER":85.5177,"MEAN_ANOMALY":274.6183,"EPHEMERIS_TYPE":0,"CLASSIFICATION_TYPE":"U","NORAD_CAT_ID":55144,"ELEMENT_SET_NO":999,"REV_AT_EPOCH":15542,"BSTAR":6.6707e-5,"MEAN_MOTION_DOT":3.9e-7,"MEAN_MOTION_DDOT":0},{"OBJECT_NAME":"ONEWEB-0560","OBJECT_ID":"2023-004F","EPOCH":"2026-02-28T20:59:48.856128","MEAN_MOTION":13.1868552,"ECCENTRICITY":0.000194,"INCLINATION":87.9236,"RA_OF_ASC_NODE":356.9746,"ARG_OF_PERICENTER":85.9988,"MEAN_ANOMALY":274.1366,"EPHEMERIS_TYPE":0,"CLASSIFICATION_TYPE":"U","NORAD_CAT_ID":55145,"ELEMENT_SET_NO":999,"REV_AT_EPOCH":15543,"BSTAR":-5.7749e-5,"MEAN_MOTION_DOT":-1.0e-7,"MEAN_MOTION_DDOT":0},{"OBJECT_NAME":"ONEWEB-0565","OBJECT_ID":"2023-004G","EPOCH":"2026-02-28T20:50:18.771648","MEAN_MOTION":13.18685296,"ECCENTRICITY":0.0002328,"INCLINATION":87.9225,"RA_OF_ASC_NODE":357.014,"ARG_OF_PERICENTER":82.1837,"MEAN_ANOMALY":277.956,"EPHEMERIS_TYPE":0,"CLASSIFICATION_TYPE":"U","NORAD_CAT_ID":55146,"ELEMENT_SET_NO":999,"REV_AT_EPOCH":15542,"BSTAR":0.00012861,"MEAN_MOTION_DOT":6.4e-7,"MEAN_MOTION_DDOT":0},{"OBJECT_NAME":"ONEWEB-0567","OBJECT_ID":"2023-004H","EPOCH":"2026-02-28T20:40:48.791712","MEAN_MOTION":13.1868551,"ECCENTRICITY":0.0002185,"INCLINATION":87.9235,"RA_OF_ASC_NODE":356.9889,"ARG_OF_PERICENTER":85.282,"MEAN_ANOMALY":274.8562,"EPHEMERIS_TYPE":0,"CLASSIFICATION_TYPE":"U","NORAD_CAT_ID":55147,"ELEMENT_SET_NO":999,"REV_AT_EPOCH":15542,"BSTAR":3.2104e-5,"MEAN_MOTION_DOT":2.6e-7,"MEAN_MOTION_DDOT":0},{"OBJECT_NAME":"ONEWEB-0569","OBJECT_ID":"2023-004J","EPOCH":"2026-03-01T03:22:32.932416","MEAN_MOTION":13.13469484,"ECCENTRICITY":0.0002329,"INCLINATION":87.9051,"RA_OF_ASC_NODE":341.6992,"ARG_OF_PERICENTER":100.9759,"MEAN_ANOMALY":259.1632,"EPHEMERIS_TYPE":0,"CLASSIFICATION_TYPE":"U","NORAD_CAT_ID":55148,"ELEMENT_SET_NO":999,"REV_AT_EPOCH":15599,"BSTAR":0.00059227,"MEAN_MOTION_DOT":2.29e-6,"MEAN_MOTION_DDOT":0}]
